LANDSAT 9               
1 49260U 21088A   24091.57465708  .00000762  00000+0  17920-3 0  9994
2 49260  98.1928 162.4885 0001498  86.4178 273.7192 14.57112312133397
